{"type": "FeatureCollection", "features": [{"type": "Feature", "properties": {"norad_id": 2807, "name": "OPS 7218 (TRANSIT 16)", "group": "nnss", "lat": 78.17621421769577, "lon": 172.20235123286417, "alt_km": 1046.0765814985443, "timestamp": "2025-12-20T07:33:51.081466+00:00", "meta": {"OBJECT_NAME": "OPS 7218 (TRANSIT 16)", "OBJECT_ID": "1967-048A", "EPOCH": "2025-12-19T10:34:01.367904", "MEAN_MOTION": 13.50723636, "ECCENTRICITY": 0.0022134, "INCLINATION": 89.6731, "RA_OF_ASC_NODE": 353.7939, "ARG_OF_PERICENTER": 96.2167, "MEAN_ANOMALY": 73.8764, "EPHEMERIS_TYPE": 0, "CLASSIFICATION_TYPE": "U", "NORAD_CAT_ID": 2807, "ELEMENT_SET_NO": 999, "REV_AT_EPOCH": 88366, "BSTAR": 0.00015972, "MEAN_MOTION_DOT": 1.13e-06, "MEAN_MOTION_DDOT": 0}, "tle": {"line1": "1 02807U 67048A   25353.44029361  .00000113  00000+0  15972-3 0  9990", "line2": "2 02807  89.6731 353.7939 0022134  96.2167  73.8764 13.50723636883667"}}, "geometry": {"type": "Point", "coordinates": [172.20235123286417, 78.17621421769577]}}, {"type": "Feature", "properties": {"norad_id": 2965, "name": "OPS 4947 (TRANSIT 17)", "group": "nnss", "lat": -60.962308348279365, "lon": -154.7880195508616, "alt_km": 1036.3926210516938, "timestamp": "2025-12-20T07:33:51.081489+00:00", "meta": {"OBJECT_NAME": "OPS 4947 (TRANSIT 17)", "OBJECT_ID": "1967-092A", "EPOCH": "2025-12-19T20:35:22.100352", "MEAN_MOTION": 13.53455355, "ECCENTRICITY": 0.00466729, "INCLINATION": 89.2488, "RA_OF_ASC_NODE": 23.8927, "ARG_OF_PERICENTER": 213.2944, "MEAN_ANOMALY": 320.6179, "EPHEMERIS_TYPE": 0, "CLASSIFICATION_TYPE": "U", "NORAD_CAT_ID": 2965, "ELEMENT_SET_NO": 999, "REV_AT_EPOCH": 87193, "BSTAR": 0.00019839858, "MEAN_MOTION_DOT": 1.45e-06, "MEAN_MOTION_DDOT": 0}, "tle": {"line1": "1 02965U 67092A   25353.85789468  .00000145  00000+0  19840-3 0  9993", "line2": "2 02965  89.2488  23.8927 0046672 213.2944 320.6179 13.53455355871939"}}, "geometry": {"type": "Point", "coordinates": [-154.7880195508616, -60.962308348279365]}}, {"type": "Feature", "properties": {"norad_id": 3133, "name": "OPS 7034 (TRANSIT 18)", "group": "nnss", "lat": -21.8683602722207, "lon": -86.32822005606374, "alt_km": 1126.2837889775274, "timestamp": "2025-12-20T07:33:51.081503+00:00", "meta": {"OBJECT_NAME": "OPS 7034 (TRANSIT 18)", "OBJECT_ID": "1968-012A", "EPOCH": "2025-12-19T12:58:57.137376", "MEAN_MOTION": 13.51567181, "ECCENTRICITY": 0.007451, "INCLINATION": 90.0283, "RA_OF_ASC_NODE": 273.6582, "ARG_OF_PERICENTER": 149.5169, "MEAN_ANOMALY": 23.9801, "EPHEMERIS_TYPE": 0, "CLASSIFICATION_TYPE": "U", "NORAD_CAT_ID": 3133, "ELEMENT_SET_NO": 999, "REV_AT_EPOCH": 57010, "BSTAR": 0.00014664, "MEAN_MOTION_DOT": 1.07e-06, "MEAN_MOTION_DDOT": 0}, "tle": {"line1": "1 03133U 68012A   25353.54093909  .00000107  00000+0  14664-3 0  9995", "line2": "2 03133  90.0283 273.6582 0074510 149.5169  23.9801 13.51567181570103"}}, "geometry": {"type": "Point", "coordinates": [-86.32822005606374, -21.8683602722207]}}, {"type": "Feature", "properties": {"norad_id": 4507, "name": "NNSS 19 (TRANSIT 19)", "group": "nnss", "lat": -55.991130207445494, "lon": -125.45335193368915, "alt_km": 967.4151528012917, "timestamp": "2025-12-20T07:33:51.081515+00:00", "meta": {"OBJECT_NAME": "NNSS 19 (TRANSIT 19)", "OBJECT_ID": "1970-067A", "EPOCH": "2025-12-19T22:57:02.997216", "MEAN_MOTION": 13.51316435, "ECCENTRICITY": 0.0170258, "INCLINATION": 90.0051, "RA_OF_ASC_NODE": 234.5389, "ARG_OF_PERICENTER": 272.2629, "MEAN_ANOMALY": 85.9037, "EPHEMERIS_TYPE": 0, "CLASSIFICATION_TYPE": "U", "NORAD_CAT_ID": 4507, "ELEMENT_SET_NO": 999, "REV_AT_EPOCH": 72319, "BSTAR": 0.00012470339, "MEAN_MOTION_DOT": 9.6e-07, "MEAN_MOTION_DDOT": 0}, "tle": {"line1": "1 04507U 70067A   25353.95628469  .00000096  00000+0  12470-3 0  9994", "line2": "2 04507  90.0051 234.5389 0170258 272.2629  85.9037 13.51316435723196"}}, "geometry": {"type": "Point", "coordinates": [-125.45335193368915, -55.991130207445494]}}, {"type": "Feature", "properties": {"norad_id": 6909, "name": "NNSS 20 (TRANSIT 20)", "group": "nnss", "lat": -24.683994710619768, "lon": 75.00674234477938, "alt_km": 1098.1164543537334, "timestamp": "2025-12-20T07:33:51.081527+00:00", "meta": {"OBJECT_NAME": "NNSS 20 (TRANSIT 20)", "OBJECT_ID": "1973-081A", "EPOCH": "2025-12-19T11:19:12.247392", "MEAN_MOTION": 13.71437552, "ECCENTRICITY": 0.0156459, "INCLINATION": 89.8562, "RA_OF_ASC_NODE": 254.9533, "ARG_OF_PERICENTER": 58.3821, "MEAN_ANOMALY": 303.2502, "EPHEMERIS_TYPE": 0, "CLASSIFICATION_TYPE": "U", "NORAD_CAT_ID": 6909, "ELEMENT_SET_NO": 999, "REV_AT_EPOCH": 80453, "BSTAR": 0.00023103, "MEAN_MOTION_DOT": 2.38e-06, "MEAN_MOTION_DDOT": 0}, "tle": {"line1": "1 06909U 73081A   25353.47166953  .00000238  00000+0  23103-3 0  9996", "line2": "2 06909  89.8562 254.9533 0156459  58.3821 303.2502 13.71437552804535"}}, "geometry": {"type": "Point", "coordinates": [75.00674234477938, -24.683994710619768]}}, {"type": "Feature", "properties": {"norad_id": 10457, "name": "TRANSAT", "group": "nnss", "lat": -63.78724059027123, "lon": -100.95592029668455, "alt_km": 1078.6760196461228, "timestamp": "2025-12-20T07:33:51.081538+00:00", "meta": {"OBJECT_NAME": "TRANSAT", "OBJECT_ID": "1977-106A", "EPOCH": "2025-12-19T20:17:38.576832", "MEAN_MOTION": 13.48944637, "ECCENTRICITY": 0.00260705, "INCLINATION": 89.6481, "RA_OF_ASC_NODE": 78.3455, "ARG_OF_PERICENTER": 169.1194, "MEAN_ANOMALY": 315.2603, "EPHEMERIS_TYPE": 0, "CLASSIFICATION_TYPE": "U", "NORAD_CAT_ID": 10457, "ELEMENT_SET_NO": 999, "REV_AT_EPOCH": 36839, "BSTAR": 0.00011501896, "MEAN_MOTION_DOT": 8.2e-07, "MEAN_MOTION_DDOT": 0}, "tle": {"line1": "1 10457U 77106A   25353.84558538  .00000082  00000+0  11502-3 0  9993", "line2": "2 10457  89.6481  78.3455 0026070 169.1194 315.2603 13.48944637368391"}}, "geometry": {"type": "Point", "coordinates": [-100.95592029668455, -63.78724059027123]}}, {"type": "Feature", "properties": {"norad_id": 12458, "name": "NOVA 1", "group": "nnss", "lat": 13.716001930162475, "lon": -88.75772476711929, "alt_km": 1171.288802436492, "timestamp": "2025-12-20T07:33:51.081549+00:00", "meta": {"OBJECT_NAME": "NOVA 1", "OBJECT_ID": "1981-044A", "EPOCH": "2025-12-19T20:25:06.504672", "MEAN_MOTION": 13.23279025, "ECCENTRICITY": 0.00158709, "INCLINATION": 89.8528, "RA_OF_ASC_NODE": 91.2848, "ARG_OF_PERICENTER": 86.5334, "MEAN_ANOMALY": 28.4106, "EPHEMERIS_TYPE": 0, "CLASSIFICATION_TYPE": "U", "NORAD_CAT_ID": 12458, "ELEMENT_SET_NO": 999, "REV_AT_EPOCH": 15280, "BSTAR": 9.2416374e-05, "MEAN_MOTION_DOT": 4.8e-07, "MEAN_MOTION_DDOT": 0}, "tle": {"line1": "1 12458U 81044A   25353.85076973  .00000048  00000+0  92416-4 0  9997", "line2": "2 12458  89.8528  91.2848 0015870  86.5334  28.4106 13.23279025152805"}}, "geometry": {"type": "Point", "coordinates": [-88.75772476711929, 13.716001930162475]}}, {"type": "Feature", "properties": {"norad_id": 15362, "name": "NOVA 3", "group": "nnss", "lat": 32.561292695660626, "lon": 80.54580397436202, "alt_km": 1168.0623899160819, "timestamp": "2025-12-20T07:33:51.081559+00:00", "meta": {"OBJECT_NAME": "NOVA 3", "OBJECT_ID": "1984-110A", "EPOCH": "2025-12-19T11:29:40.293312", "MEAN_MOTION": 13.23045275, "ECCENTRICITY": 0.0030034, "INCLINATION": 90.1221, "RA_OF_ASC_NODE": 80.614, "ARG_OF_PERICENTER": 312.622, "MEAN_ANOMALY": 59.034, "EPHEMERIS_TYPE": 0, "CLASSIFICATION_TYPE": "U", "NORAD_CAT_ID": 15362, "ELEMENT_SET_NO": 999, "REV_AT_EPOCH": 98788, "BSTAR": 9.0213e-05, "MEAN_MOTION_DOT": 4.6e-07, "MEAN_MOTION_DDOT": 0}, "tle": {"line1": "1 15362U 84110A   25353.47893858  .00000046  00000+0  90213-4 0  9999", "line2": "2 15362  90.1221  80.6140 0030034 312.6220  59.0340 13.23045275987882"}}, "geometry": {"type": "Point", "coordinates": [80.54580397436202, 32.561292695660626]}}, {"type": "Feature", "properties": {"norad_id": 15935, "name": "OSCAR 30", "group": "nnss", "lat": 70.52107246812473, "lon": -79.56049921474263, "alt_km": 1028.9948605128056, "timestamp": "2025-12-20T07:33:51.081569+00:00", "meta": {"OBJECT_NAME": "OSCAR 30", "OBJECT_ID": "1985-066A", "EPOCH": "2025-12-19T13:06:55.636128", "MEAN_MOTION": 13.3607924, "ECCENTRICITY": 0.0169224, "INCLINATION": 90.1656, "RA_OF_ASC_NODE": 99.9585, "ARG_OF_PERICENTER": 64.9065, "MEAN_ANOMALY": 307.9619, "EPHEMERIS_TYPE": 0, "CLASSIFICATION_TYPE": "U", "NORAD_CAT_ID": 15935, "ELEMENT_SET_NO": 999, "REV_AT_EPOCH": 96544, "BSTAR": 9.8407e-05, "MEAN_MOTION_DOT": 6.5e-07, "MEAN_MOTION_DDOT": 0}, "tle": {"line1": "1 15935U 85066A   25353.54647727  .00000065  00000+0  98407-4 0  9990", "line2": "2 15935  90.1656  99.9585 0169224  64.9065 307.9619 13.36079240965449"}}, "geometry": {"type": "Point", "coordinates": [-79.56049921474263, 70.52107246812473]}}, {"type": "Feature", "properties": {"norad_id": 15936, "name": "OSCAR 24", "group": "nnss", "lat": -1.433394464979357, "lon": -87.56515101705902, "alt_km": 1173.8485343407656, "timestamp": "2025-12-20T07:33:51.081580+00:00", "meta": {"OBJECT_NAME": "OSCAR 24", "OBJECT_ID": "1985-066B", "EPOCH": "2025-12-19T20:29:27.143232", "MEAN_MOTION": 13.35936665, "ECCENTRICITY": 0.01703597, "INCLINATION": 90.1791, "RA_OF_ASC_NODE": 92.4312, "ARG_OF_PERICENTER": 70.4919, "MEAN_ANOMALY": 51.325, "EPHEMERIS_TYPE": 0, "CLASSIFICATION_TYPE": "U", "NORAD_CAT_ID": 15936, "ELEMENT_SET_NO": 999, "REV_AT_EPOCH": 96738, "BSTAR": 9.1695961e-05, "MEAN_MOTION_DOT": 6.1e-07, "MEAN_MOTION_DDOT": 0}, "tle": {"line1": "1 15936U 85066B   25353.85378638  .00000061  00000+0  91696-4 0  9996", "line2": "2 15936  90.1791  92.4312 0170359  70.4919  51.3250 13.35936665967385"}}, "geometry": {"type": "Point", "coordinates": [-87.56515101705902, -1.433394464979357]}}]}